{"fetched_at":"2026-07-24T07:06:06.293Z","source":"https://celestrak.org/NORAD/elements/gp.php?GROUP=kuiper&FORMAT=JSON","constellation":"kuiper","records":[{"OBJECT_NAME":"KUIPER-00114","OBJECT_ID":"2025-171V","EPOCH":"2026-07-23T14:18:20.168064","CLASSIFICATION_TYPE":"U","MEAN_MOTION":14.79930953,"ECCENTRICITY":0.0000368,"INCLINATION":51.9002,"RA_OF_ASC_NODE":294.6179,"ARG_OF_PERICENTER":112.3847,"MEAN_ANOMALY":247.7154,"EPHEMERIS_TYPE":0,"NORAD_CAT_ID":65151,"ELEMENT_SET_NO":999,"REV_AT_EPOCH":5276,"BSTAR":-0.000437,"MEAN_MOTION_DOT":-0.0000355,"MEAN_MOTION_DDOT":0},{"OBJECT_NAME":"KUIPER-00115","OBJECT_ID":"2025-171W","EPOCH":"2026-07-23T16:07:13.008576","CLASSIFICATION_TYPE":"U","MEAN_MOTION":14.79962934,"ECCENTRICITY":0.000012,"INCLINATION":51.9004,"RA_OF_ASC_NODE":286.7857,"ARG_OF_PERICENTER":121.7009,"MEAN_ANOMALY":238.3965,"EPHEMERIS_TYPE":0,"NORAD_CAT_ID":65152,"ELEMENT_SET_NO":999,"REV_AT_EPOCH":5288,"BSTAR":0.00045156,"MEAN_MOTION_DOT":0.00003225,"MEAN_MOTION_DDOT":0},{"OBJECT_NAME":"KUIPER-00116","OBJECT_ID":"2025-171X","EPOCH":"2026-07-22T14:52:15.158496","CLASSIFICATION_TYPE":"U","MEAN_MOTION":14.79940722,"ECCENTRICITY":0.00005462,"INCLINATION":51.9012,"RA_OF_ASC_NODE":296.4722,"ARG_OF_PERICENTER":97.6513,"MEAN_ANOMALY":262.4512,"EPHEMERIS_TYPE":0,"NORAD_CAT_ID":65153,"ELEMENT_SET_NO":999,"REV_AT_EPOCH":5265,"BSTAR":0.00035547209,"MEAN_MOTION_DOT":0.0000249,"MEAN_MOTION_DDOT":0},{"OBJECT_NAME":"KUIPER-00118","OBJECT_ID":"2025-171Y","EPOCH":"2026-07-23T15:06:56.290752","CLASSIFICATION_TYPE":"U","MEAN_MOTION":14.79933433,"ECCENTRICITY":0.0000448,"INCLINATION":51.899,"RA_OF_ASC_NODE":294.4561,"ARG_OF_PERICENTER":100.1954,"MEAN_ANOMALY":259.9058,"EPHEMERIS_TYPE":0,"NORAD_CAT_ID":65154,"ELEMENT_SET_NO":999,"REV_AT_EPOCH":5277,"BSTAR":-0.00034071,"MEAN_MOTION_DOT":-0.00002817,"MEAN_MOTION_DDOT":0},{"OBJECT_NAME":"KUIPER-00119","OBJECT_ID":"2025-171Z","EPOCH":"2026-07-23T15:26:24.479232","CLASSIFICATION_TYPE":"U","MEAN_MOTION":14.7994341,"ECCENTRICITY":0.00002,"INCLINATION":51.9009,"RA_OF_ASC_NODE":281.9923,"ARG_OF_PERICENTER":2.6366,"MEAN_ANOMALY":357.4597,"EPHEMERIS_TYPE":0,"NORAD_CAT_ID":65155,"ELEMENT_SET_NO":999,"REV_AT_EPOCH":5294,"BSTAR":0.00042414,"MEAN_MOTION_DOT":0.00003015,"MEAN_MOTION_DDOT":0},{"OBJECT_NAME":"KUIPER-00120","OBJECT_ID":"2025-217A","EPOCH":"2026-07-23T04:54:59.389920","CLASSIFICATION_TYPE":"U","MEAN_MOTION":14.79951897,"ECCENTRICITY":0.00006856,"INCLINATION":51.897,"RA_OF_ASC_NODE":173.806,"ARG_OF_PERICENTER":59.6798,"MEAN_ANOMALY":300.4232,"EPHEMERIS_TYPE":0,"NORAD_CAT_ID":65762,"ELEMENT_SET_NO":999,"REV_AT_EPOCH":4480,"BSTAR":0.00035625819,"MEAN_MOTION_DOT":0.00002497,"MEAN_MOTION_DDOT":0},{"OBJECT_NAME":"KUIPER-00132","OBJECT_ID":"2025-217B","EPOCH":"2026-07-23T14:35:00.760416","CLASSIFICATION_TYPE":"U","MEAN_MOTION":15.43629221,"ECCENTRICITY":0.00065472,"INCLINATION":51.8552,"RA_OF_ASC_NODE":61.6264,"ARG_OF_PERICENTER":96.7118,"MEAN_ANOMALY":263.4616,"EPHEMERIS_TYPE":0,"NORAD_CAT_ID":65763,"ELEMENT_SET_NO":999,"REV_AT_EPOCH":4639,"BSTAR":0.0012130886,"MEAN_MOTION_DOT":0.00055537,"MEAN_MOTION_DDOT":0},{"OBJECT_NAME":"KUIPER-00133","OBJECT_ID":"2025-217C","EPOCH":"2026-07-23T07:20:52.220544","CLASSIFICATION_TYPE":"U","MEAN_MOTION":14.79952887,"ECCENTRICITY":0.00006083,"INCLINATION":51.9016,"RA_OF_ASC_NODE":173.4706,"ARG_OF_PERICENTER":57.8439,"MEAN_ANOMALY":302.2582,"EPHEMERIS_TYPE":0,"NORAD_CAT_ID":65764,"ELEMENT_SET_NO":999,"REV_AT_EPOCH":4482,"BSTAR":0.00037346313,"MEAN_MOTION_DOT":0.00002628,"MEAN_MOTION_DDOT":0},{"OBJECT_NAME":"KUIPER-00139","OBJECT_ID":"2025-217D","EPOCH":"2026-07-23T04:56:52.752768","CLASSIFICATION_TYPE":"U","MEAN_MOTION":14.7995222,"ECCENTRICITY":0.00008522,"INCLINATION":51.8969,"RA_OF_ASC_NODE":141.3667,"ARG_OF_PERICENTER":73.8518,"MEAN_ANOMALY":286.2538,"EPHEMERIS_TYPE":0,"NORAD_CAT_ID":65765,"ELEMENT_SET_NO":999,"REV_AT_EPOCH":4526,"BSTAR":0.00058247626,"MEAN_MOTION_DOT":0.00004224,"MEAN_MOTION_DDOT":0},{"OBJECT_NAME":"KUIPER-00142","OBJECT_ID":"2025-217E","EPOCH":"2026-07-23T19:57:22.394016","CLASSIFICATION_TYPE":"U","MEAN_MOTION":14.79947028,"ECCENTRICITY":0.0000813,"INCLINATION":51.8985,"RA_OF_ASC_NODE":153.563,"ARG_OF_PERICENTER":77.683,"MEAN_ANOMALY":282.4224,"EPHEMERIS_TYPE":0,"NORAD_CAT_ID":65766,"ELEMENT_SET_NO":999,"REV_AT_EPOCH":4514,"BSTAR":0.00044136,"MEAN_MOTION_DOT":0.00003146,"MEAN_MOTION_DDOT":0},{"OBJECT_NAME":"KUIPER-00145","OBJECT_ID":"2025-217F","EPOCH":"2026-07-23T21:30:45.052128","CLASSIFICATION_TYPE":"U","MEAN_MOTION":14.79941608,"ECCENTRICITY":0.0000914,"INCLINATION":51.8981,"RA_OF_ASC_NODE":155.7972,"ARG_OF_PERICENTER":89.8593,"MEAN_ANOMALY":270.2474,"EPHEMERIS_TYPE":0,"NORAD_CAT_ID":65767,"ELEMENT_SET_NO":999,"REV_AT_EPOCH":4511,"BSTAR":-0.00059083,"MEAN_MOTION_DOT":-0.00004723,"MEAN_MOTION_DDOT":0},{"OBJECT_NAME":"KUIPER-00147","OBJECT_ID":"2025-217G","EPOCH":"2026-07-23T14:09:15.307200","CLASSIFICATION_TYPE":"U","MEAN_MOTION":14.7994563,"ECCENTRICITY":0.0000642,"INCLINATION":51.8973,"RA_OF_ASC_NODE":159.6338,"ARG_OF_PERICENTER":84.9326,"MEAN_ANOMALY":275.1709,"EPHEMERIS_TYPE":0,"NORAD_CAT_ID":65768,"ELEMENT_SET_NO":999,"REV_AT_EPOCH":4503,"BSTAR":0.00043762,"MEAN_MOTION_DOT":0.00003118,"MEAN_MOTION_DDOT":0},{"OBJECT_NAME":"KUIPER-00148","OBJECT_ID":"2025-217H","EPOCH":"2026-07-23T19:28:09.151392","CLASSIFICATION_TYPE":"U","MEAN_MOTION":14.79931596,"ECCENTRICITY":0.0000967,"INCLINATION":51.9036,"RA_OF_ASC_NODE":141.1718,"ARG_OF_PERICENTER":79.0667,"MEAN_ANOMALY":281.0404,"EPHEMERIS_TYPE":0,"NORAD_CAT_ID":65769,"ELEMENT_SET_NO":999,"REV_AT_EPOCH":4531,"BSTAR":0.00045101,"MEAN_MOTION_DOT":0.00003219,"MEAN_MOTION_DDOT":0},{"OBJECT_NAME":"KUIPER-00150","OBJECT_ID":"2025-217J","EPOCH":"2026-07-23T02:32:59.278560","CLASSIFICATION_TYPE":"U","MEAN_MOTION":14.79928207,"ECCENTRICITY":0.00006962,"INCLINATION":51.8993,"RA_OF_ASC_NODE":171.8049,"ARG_OF_PERICENTER":71.3872,"MEAN_ANOMALY":288.7166,"EPHEMERIS_TYPE":0,"NORAD_CAT_ID":65770,"ELEMENT_SET_NO":999,"REV_AT_EPOCH":4482,"BSTAR":-0.000009596875,"MEAN_MOTION_DOT":-0.00000294,"MEAN_MOTION_DDOT":0},{"OBJECT_NAME":"KUIPER-00151","OBJECT_ID":"2025-217K","EPOCH":"2026-07-23T14:05:23.220384","CLASSIFICATION_TYPE":"U","MEAN_MOTION":14.79943309,"ECCENTRICITY":0.0000727,"INCLINATION":51.8998,"RA_OF_ASC_NODE":162.1794,"ARG_OF_PERICENTER":63.4533,"MEAN_ANOMALY":296.6504,"EPHEMERIS_TYPE":0,"NORAD_CAT_ID":65771,"ELEMENT_SET_NO":999,"REV_AT_EPOCH":4500,"BSTAR":0.00045427,"MEAN_MOTION_DOT":0.00003244,"MEAN_MOTION_DDOT":0},{"OBJECT_NAME":"KUIPER-00152","OBJECT_ID":"2025-217L","EPOCH":"2026-07-23T20:05:07.715904","CLASSIFICATION_TYPE":"U","MEAN_MOTION":14.79963627,"ECCENTRICITY":0.0000896,"INCLINATION":51.8997,"RA_OF_ASC_NODE":148.5583,"ARG_OF_PERICENTER":71.5158,"MEAN_ANOMALY":288.5902,"EPHEMERIS_TYPE":0,"NORAD_CAT_ID":65772,"ELEMENT_SET_NO":999,"REV_AT_EPOCH":4521,"BSTAR":0.00047735,"MEAN_MOTION_DOT":0.00003422,"MEAN_MOTION_DDOT":0}]}
