KUIPER-00114            
1 65151U 25171V   26204.59606676 -.00003550  00000+0 -43700-3 0  9994
2 65151  51.9002 294.6179 0000368 112.3847 247.7154 14.79930953 52768
KUIPER-00115            
1 65152U 25171W   26204.67167834  .00003225  00000+0  45156-3 0  9996
2 65152  51.9004 286.7857 0000120 121.7009 238.3965 14.79962934 52889
KUIPER-00116            
1 65153U 25171X   26203.61961989  .00002490  00000+0  35547-3 0  9999
2 65153  51.9012 296.4722 0000546  97.6513 262.4512 14.79940722 52653
KUIPER-00118            
1 65154U 25171Y   26204.62981818 -.00002817  00000+0 -34071-3 0  9991
2 65154  51.8990 294.4561 0000448 100.1954 259.9058 14.79933433 52777
KUIPER-00119            
1 65155U 25171Z   26204.64333888  .00003015  00000+0  42414-3 0  9991
2 65155  51.9009 281.9923 0000200   2.6366 357.4597 14.79943410 52949
KUIPER-00120            
1 65762U 25217A   26204.20485405  .00002497  00000+0  35626-3 0  9991
2 65762  51.8970 173.8060 0000685  59.6798 300.4232 14.79951897 44806
KUIPER-00132            
1 65763U 25217B   26204.60764769  .00055537  00000+0  12131-2 0  9997
2 65763  51.8552  61.6264 0006547  96.7118 263.4616 15.43629221 46399
KUIPER-00133            
1 65764U 25217C   26204.30615996  .00002628  00000+0  37346-3 0  9991
2 65764  51.9016 173.4706 0000608  57.8439 302.2582 14.79952887 44820
KUIPER-00139            
1 65765U 25217D   26204.20616612  .00004224  00000+0  58248-3 0  9995
2 65765  51.8969 141.3667 0000852  73.8518 286.2538 14.79952220 45266
KUIPER-00142            
1 65766U 25217E   26204.83150919  .00003146  00000+0  44136-3 0  9991
2 65766  51.8985 153.5630 0000813  77.6830 282.4224 14.79947028 45143
KUIPER-00145            
1 65767U 25217F   26204.89635477 -.00004723  00000+0 -59083-3 0  9996
2 65767  51.8981 155.7972 0000914  89.8593 270.2474 14.79941608 45113
KUIPER-00147            
1 65768U 25217G   26204.58976050  .00003118  00000+0  43762-3 0  9990
2 65768  51.8973 159.6338 0000642  84.9326 275.1709 14.79945630 45037
KUIPER-00148            
1 65769U 25217H   26204.81121703  .00003219  00000+0  45101-3 0  9995
2 65769  51.9036 141.1718 0000967  79.0667 281.0404 14.79931596 45315
KUIPER-00150            
1 65770U 25217J   26204.10624165 -.00000294  00000+0 -95969-5 0  9990
2 65770  51.8993 171.8049 0000696  71.3872 288.7166 14.79928207 44826
KUIPER-00151            
1 65771U 25217K   26204.58707431  .00003244  00000+0  45427-3 0  9999
2 65771  51.8998 162.1794 0000727  63.4533 296.6504 14.79943309 45008
KUIPER-00152            
1 65772U 25217L   26204.83689486  .00003422  00000+0  47735-3 0  9999
2 65772  51.8997 148.5583 0000896  71.5158 288.5902 14.79963627 45212
